QIANFAN-41              
1 62242U 24232F   25239.59052990  .00000053  00000+0  63648-4 0  9997
2 62242  88.9941  52.0124 0015354 135.6387 224.5997 13.50961516 84784
QIANFAN-42              
1 62243U 24232G   25239.57190372  .00000174  00000+0  68755-4 0  9991
2 62243  88.9942  49.5981 0017246  77.3766 282.9354 14.24340680 86112
QIANFAN-43              
1 62244U 24232H   25239.58640870  .00000055  00000+0  66565-4 0  9991
2 62244  88.9946  52.0734 0016736 140.9888 219.2474 13.50965354 53396
QIANFAN-44              
1 62245U 24232J   25239.57405577  .00000033  00000+0  31594-4 0  9994
2 62245  88.9944  51.8870 0015030 137.6862 222.5451 13.50964091 84869
QIANFAN-45              
1 62246U 24232K   25239.61522942  .00000046  00000+0  52212-4 0  9990
2 62246  88.9948  52.0257 0015669 137.5018 222.7349 13.50967622 84799
QIANFAN-46              
1 62247U 24232L   25239.56583832  .00000037  00000+0  38683-4 0  9996
2 62247  88.9943  52.1041 0015617 142.6708 217.5532 13.50961908 84745
QIANFAN-47              
1 62248U 24232M   25239.56988466  .00000039  00000+0  41792-4 0  9996
2 62248  88.9939  52.0409 0016056 142.0600 218.1685 13.50961734 84777
QIANFAN-48              
1 62249U 24232N   25239.53290486  .00000053  00000+0  62587-4 0  9993
2 62249  88.9944  52.0423 0018227 145.3025 214.9320 13.50964969 84772
